OBJECT_NAME,OBJECT_ID,EPOCH,MEAN_MOTION,ECCENTRICITY,INCLINATION,RA_OF_ASC_NODE,ARG_OF_PERICENTER,MEAN_ANOMALY,EPHEMERIS_TYPE,CLASSIFICATION_TYPE,NORAD_CAT_ID,ELEMENT_SET_NO,REV_AT_EPOCH,BSTAR,MEAN_MOTION_DOT,MEAN_MOTION_DDOT
TEVEL2-4,2025-052D,2026-07-17T16:30:13.677120,15.35621096,.0003368,97.3859,95.1461,46.9378,313.2147,0,U,63213,999,7479,.27972E-3,.9609E-4,0
TEVEL2-5,2025-052E,2026-07-16T16:03:21.768480,15.35411833,.00034631,97.3862,94.0641,50.3372,309.8177,0,U,63214,999,7463,.32362702E-3,.11058E-3,0
TEVEL2-6,2025-052F,2026-07-17T15:49:49.044288,15.35395037,.0003363,97.3864,95.0416,51.0715,309.0827,0,U,63215,999,7478,.28776E-3,.9817E-4,0
TEVEL2-1,2025-052H,2026-07-17T12:05:46.515840,15.34820987,.0004106,97.3833,94.4731,55.4900,304.6730,0,U,63217,999,7474,.273E-3,.914E-4,0
TEVEL2-3,2025-052J,2026-07-17T15:04:07.385664,15.34886314,.0003811,97.3840,94.6233,57.5215,302.6396,0,U,63218,999,7476,.26261E-3,.8807E-4,0
TEVEL2-2,2025-052K,2026-07-17T10:32:03.164064,15.34831434,.0004139,97.3834,94.4108,55.7304,304.4330,0,U,63219,999,7473,.28479E-3,.9542E-4,0
TEVEL2-9,2025-052AD,2026-07-16T16:08:49.602048,15.32762164,.00075566,97.3899,92.9536,53.0535,307.1398,0,U,63237,999,7454,.32238013E-3,.10133E-3,0
TEVEL2-7,2025-052AE,2026-07-17T04:14:23.728992,15.32453102,.00076022,97.3898,93.3596,51.1945,308.9975,0,U,63238,999,7461,.28759837E-3,.8943E-4,0
TEVEL2-8,2025-052AF,2026-07-16T15:54:27.850176,15.32429153,.00077106,97.3904,92.8233,54.0583,306.1374,0,U,63239,999,7453,.30904259E-3,.9609E-4,0
